[{"OBJECT_NAME":"CORVUS BC2","OBJECT_ID":"2017-042X","EPOCH":"2026-03-09T22:14:39.055488","MEAN_MOTION":15.05610206,"ECCENTRICITY":0.00145863,"INCLINATION":97.3955,"RA_OF_ASC_NODE":234.2405,"ARG_OF_PERICENTER":92.385,"MEAN_ANOMALY":267.9047,"EPHEMERIS_TYPE":0,"CLASSIFICATION_TYPE":"U","NORAD_CAT_ID":42846,"ELEMENT_SET_NO":999,"REV_AT_EPOCH":47212,"BSTAR":0.00034626467,"MEAN_MOTION_DOT":4.947e-5,"MEAN_MOTION_DDOT":0},{"OBJECT_NAME":"STARLINK-6254","OBJECT_ID":"2023-088AU","EPOCH":"2026-03-09T22:00:01.999584","MEAN_MOTION":15.05993771,"ECCENTRICITY":0.00023419,"INCLINATION":43.0003,"RA_OF_ASC_NODE":93.1369,"ARG_OF_PERICENTER":281.6589,"MEAN_ANOMALY":124.3021,"EPHEMERIS_TYPE":0,"CLASSIFICATION_TYPE":"U","NORAD_CAT_ID":57090,"ELEMENT_SET_NO":999,"REV_AT_EPOCH":578,"BSTAR":0.0062391158,"MEAN_MOTION_DOT":0.00093477,"MEAN_MOTION_DDOT":0}]
